{
  "norad_id": 53991,
  "name": "STARLINK-5118",
  "history": [
    {
      "epoch": "2026-03-28T18:30:24.503616Z",
      "apogee_km": 540.4266662143646,
      "perigee_km": 539.0591397151466,
      "latitude_deg": -1.838446705014866e-05,
      "longitude_deg": 14.605104515574745,
      "height_km": 540.6056933461637,
      "semi_major_axis_km": 6917.879902964755,
      "eccentricity": 9.884e-05,
      "inclination_deg": 53.2156,
      "raan_deg": 118.394,
      "arg_perigee_deg": 87.214,
      "mean_anomaly_deg": 272.8965,
      "mean_motion_rev_day": 15.08840159
    },
    {
      "epoch": "2026-03-29T02:27:20.217312Z",
      "apogee_km": 540.4414623801031,
      "perigee_km": 539.048200979204,
      "latitude_deg": -2.1262579744096602e-05,
      "longitude_deg": -106.44058406215309,
      "height_km": 540.5967532777339,
      "semi_major_axis_km": 6917.881831679653,
      "eccentricity": 0.0001007,
      "inclination_deg": 53.216,
      "raan_deg": 116.9069,
      "arg_perigee_deg": 86.3686,
      "mean_anomaly_deg": 273.7421,
      "mean_motion_rev_day": 15.08839528
    },
    {
      "epoch": "2026-03-30T02:18:07.612416Z",
      "apogee_km": 540.4769889956078,
      "perigee_km": 539.0256160297413,
      "latitude_deg": -2.7412855304600076e-06,
      "longitude_deg": -109.57759022326444,
      "height_km": 540.5983727601051,
      "semi_major_axis_km": 6917.888302512674,
      "eccentricity": 0.0001049,
      "inclination_deg": 53.2161,
      "raan_deg": 112.4467,
      "arg_perigee_deg": 86.1342,
      "mean_anomaly_deg": 273.977,
      "mean_motion_rev_day": 15.08837411
    },
    {
      "epoch": "2026-03-30T05:28:53.844672Z",
      "apogee_km": 540.4721305678895,
      "perigee_km": 539.0258773199048,
      "latitude_deg": 3.0295934449124176e-05,
      "longitude_deg": -157.99547769822468,
      "height_km": 540.5973653055815,
      "semi_major_axis_km": 6917.886003943897,
      "eccentricity": 0.00010453,
      "inclination_deg": 53.2161,
      "raan_deg": 111.852,
      "arg_perigee_deg": 86.223,
      "mean_anomaly_deg": 273.8882,
      "mean_motion_rev_day": 15.08838163
    }
  ]
}